{
  "norad_id": 61929,
  "name": "STARLINK-32609",
  "history": [
    {
      "epoch": "2026-03-28T14:08:19.756320",
      "apogee_km": 483.9539922985159,
      "perigee_km": 482.0218995137484,
      "latitude_deg": 32.4848107910562,
      "longitude_deg": 69.4552847999148,
      "semi_major_axis_km": 6861.124945906132,
      "eccentricity": 0.0001408,
      "inclination_deg": 42.9988,
      "raan_deg": 174.9052,
      "arg_perigee_deg": 270.7278,
      "mean_anomaly_deg": 89.3412,
      "mean_motion_rev_day": 15.27600422
    }
  ]
}